[{"OBJECT_NAME":"STARLINK-30307","OBJECT_ID":"2023-131R","EPOCH":"2026-03-09T22:00:01.999584","MEAN_MOTION":15.1030378,"ECCENTRICITY":0.00012287,"INCLINATION":42.9997,"RA_OF_ASC_NODE":170.3125,"ARG_OF_PERICENTER":287.4299,"MEAN_ANOMALY":343.9738,"EPHEMERIS_TYPE":0,"CLASSIFICATION_TYPE":"U","NORAD_CAT_ID":57747,"ELEMENT_SET_NO":999,"REV_AT_EPOCH":547,"BSTAR":0.04463956,"MEAN_MOTION_DOT":0.00797266,"MEAN_MOTION_DDOT":0},{"OBJECT_NAME":"UMBRA-11","OBJECT_ID":"2025-276CL","EPOCH":"2026-03-09T18:06:23.760288","MEAN_MOTION":15.22304162,"ECCENTRICITY":0.00010845,"INCLINATION":97.4267,"RA_OF_ASC_NODE":144.2955,"ARG_OF_PERICENTER":341.4923,"MEAN_ANOMALY":18.6273,"EPHEMERIS_TYPE":0,"CLASSIFICATION_TYPE":"U","NORAD_CAT_ID":66748,"ELEMENT_SET_NO":999,"REV_AT_EPOCH":1534,"BSTAR":0.0010529412,"MEAN_MOTION_DOT":0.00024246,"MEAN_MOTION_DDOT":0}]
